{
  "type": "FeatureCollection",
  "features": [
    {
      "type": "Feature",
      "properties": {
        "norad_id": 43823,
        "name": "GEO-KOMPSAT-2A",
        "group": "weather",
        "lat": 0.04483143036716337,
        "lon": -159.42564430443895,
        "alt_km": 35785.81265710006,
        "timestamp": "2025-12-09T23:33:23.490143+00:00",
        "meta_object_name": "GEO-KOMPSAT-2A",
        "meta_object_id": "2018-100A",
        "meta_epoch": "2025-12-08T09:04:40.751616",
        "meta_mean_motion": 1.00270893,
        "meta_eccentricity": 1.774e-05,
        "meta_inclination": 0.0576,
        "meta_ra_of_asc_node": 113.8278,
        "meta_arg_of_pericenter": 87.1447,
        "meta_mean_anomaly": 140.8536,
        "meta_ephemeris_type": 0,
        "meta_classification_type": "U",
        "meta_norad_cat_id": 43823,
        "meta_element_set_no": 999,
        "meta_rev_at_epoch": 2571,
        "meta_bstar": 0,
        "meta_mean_motion_dot": -3.41e-06,
        "meta_mean_motion_ddot": 0,
        "tle_line1": "1 43823U 18100A   25342.37824944 -.00000341  00000+0  00000+0 0  9994",
        "tle_line2": "2 43823   0.0576 113.8278 0000177  87.1447 140.8536  1.00270893 25718"
      },
      "geometry": {
        "type": "Point",
        "coordinates": [
          -159.42564430443895,
          0.04483143036716337
        ]
      }
    },
    {
      "type": "Feature",
      "properties": {
        "norad_id": 44387,
        "name": "METEOR-M2 2",
        "group": "weather",
        "lat": -76.39964113449552,
        "lon": 4.026717295283654,
        "alt_km": 818.6615625731001,
        "timestamp": "2025-12-09T23:33:23.490156+00:00",
        "meta_object_name": "METEOR-M2 2",
        "meta_object_id": "2019-038A",
        "meta_epoch": "2025-12-09T13:48:51.101280",
        "meta_mean_motion": 14.24289035,
        "meta_eccentricity": 0.00011048,
        "meta_inclination": 98.897,
        "meta_ra_of_asc_node": 323.2652,
        "meta_arg_of_pericenter": 154.4538,
        "meta_mean_anomaly": 205.6695,
        "meta_ephemeris_type": 0,
        "meta_classification_type": "U",
        "meta_norad_cat_id": 44387,
        "meta_element_set_no": 999,
        "meta_rev_at_epoch": 33430,
        "meta_bstar": 0.00012173569,
        "meta_mean_motion_dot": 2.35e-06,
        "meta_mean_motion_ddot": 0,
        "tle_line1": "1 44387U 19038A   25343.57559145  .00000235  00000+0  12174-3 0  9992",
        "tle_line2": "2 44387  98.8970 323.2652 0001104 154.4538 205.6695 14.24289035334302"
      },
      "geometry": {
        "type": "Point",
        "coordinates": [
          4.026717295283654,
          -76.39964113449552
        ]
      }
    },
    {
      "type": "Feature",
      "properties": {
        "norad_id": 47719,
        "name": "ARKTIKA-M 1",
        "group": "weather",
        "lat": 45.37825293908938,
        "lon": -126.39243120692322,
        "alt_km": 23195.93595252281,
        "timestamp": "2025-12-09T23:33:23.490169+00:00",
        "meta_object_name": "ARKTIKA-M 1",
        "meta_object_id": "2021-016A",
        "meta_epoch": "2025-12-09T14:03:23.859648",
        "meta_mean_motion": 2.00631311,
        "meta_eccentricity": 0.72025383,
        "meta_inclination": 63.1769,
        "meta_ra_of_asc_node": 84.4506,
        "meta_arg_of_pericenter": 269.1117,
        "meta_mean_anomaly": 15.6235,
        "meta_ephemeris_type": 0,
        "meta_classification_type": "U",
        "meta_norad_cat_id": 47719,
        "meta_element_set_no": 999,
        "meta_rev_at_epoch": 3498,
        "meta_bstar": 0,
        "meta_mean_motion_dot": -6.1e-07,
        "meta_mean_motion_ddot": 0,
        "tle_line1": "1 47719U 21016A   25343.58569282 -.00000061  00000+0  00000+0 0  9996",
        "tle_line2": "2 47719  63.1769  84.4506 7202538 269.1117  15.6235  2.00631311 34986"
      },
      "geometry": {
        "type": "Point",
        "coordinates": [
          -126.39243120692322,
          45.37825293908938
        ]
      }
    },
    {
      "type": "Feature",
      "properties": {
        "norad_id": 49008,
        "name": "FENGYUN 3E",
        "group": "weather",
        "lat": -74.06236933192879,
        "lon": 17.160874827515382,
        "alt_km": 832.6143500399094,
        "timestamp": "2025-12-09T23:33:23.490180+00:00",
        "meta_object_name": "FENGYUN 3E",
        "meta_object_id": "2021-062A",
        "meta_epoch": "2025-12-09T13:46:10.102656",
        "meta_mean_motion": 14.19878748,
        "meta_eccentricity": 6.101e-05,
        "meta_inclination": 98.7473,
        "meta_ra_of_asc_node": 344.132,
        "meta_arg_of_pericenter": 291.1226,
        "meta_mean_anomaly": 68.9885,
        "meta_ephemeris_type": 0,
        "meta_classification_type": "U",
        "meta_norad_cat_id": 49008,
        "meta_element_set_no": 999,
        "meta_rev_at_epoch": 22967,
        "meta_bstar": 1.795621e-05,
        "meta_mean_motion_dot": -6e-08,
        "meta_mean_motion_ddot": 0,
        "tle_line1": "1 49008U 21062A   25343.57372804 -.00000006  00000+0  17956-4 0  9993",
        "tle_line2": "2 49008  98.7473 344.1320 0000610 291.1226  68.9885 14.19878748229675"
      },
      "geometry": {
        "type": "Point",
        "coordinates": [
          17.160874827515382,
          -74.06236933192879
        ]
      }
    },
    {
      "type": "Feature",
      "properties": {
        "norad_id": 51850,
        "name": "GOES 18",
        "group": "weather",
        "lat": -0.01811210530820768,
        "lon": -64.69402626902787,
        "alt_km": 35783.19342533719,
        "timestamp": "2025-12-09T23:33:23.490204+00:00",
        "meta_object_name": "GOES 18",
        "meta_object_id": "2022-021A",
        "meta_epoch": "2025-12-09T12:00:33.174144",
        "meta_mean_motion": 1.00271048,
        "meta_eccentricity": 7.262e-05,
        "meta_inclination": 0.0386,
        "meta_ra_of_asc_node": 155.385,
        "meta_arg_of_pericenter": 145.2667,
        "meta_mean_anomaly": 180.9753,
        "meta_ephemeris_type": 0,
        "meta_classification_type": "U",
        "meta_norad_cat_id": 51850,
        "meta_element_set_no": 999,
        "meta_rev_at_epoch": 469,
        "meta_bstar": 0,
        "meta_mean_motion_dot": 9.9e-07,
        "meta_mean_motion_ddot": 0,
        "tle_line1": "1 51850U 22021A   25343.50038396  .00000099  00000+0  00000+0 0  9993",
        "tle_line2": "2 51850   0.0386 155.3850 0000726 145.2667 180.9753  1.00271048  4696"
      },
      "geometry": {
        "type": "Point",
        "coordinates": [
          -64.69402626902787,
          -0.01811210530820768
        ]
      }
    },
    {
      "type": "Feature",
      "properties": {
        "norad_id": 54234,
        "name": "NOAA 21 (JPSS-2)",
        "group": "weather",
        "lat": -65.23015148009999,
        "lon": -60.187676380556404,
        "alt_km": 834.7265961642279,
        "timestamp": "2025-12-09T23:33:23.490217+00:00",
        "meta_object_name": "NOAA 21 (JPSS-2)",
        "meta_object_id": "2022-150A",
        "meta_epoch": "2025-12-09T13:43:13.586592",
        "meta_mean_motion": 14.19522943,
        "meta_eccentricity": 0.00023394,
        "meta_inclination": 98.7458,
        "meta_ra_of_asc_node": 279.9195,
        "meta_arg_of_pericenter": 44.1938,
        "meta_mean_anomaly": 315.9425,
        "meta_ephemeris_type": 0,
        "meta_classification_type": "U",
        "meta_norad_cat_id": 54234,
        "meta_element_set_no": 999,
        "meta_rev_at_epoch": 15964,
        "meta_bstar": 0.00011991417,
        "meta_mean_motion_dot": 2.09e-06,
        "meta_mean_motion_ddot": 0,
        "tle_line1": "1 54234U 22150A   25343.57168503  .00000209  00000+0  11991-3 0  9994",
        "tle_line2": "2 54234  98.7458 279.9195 0002339  44.1938 315.9425 14.19522943159643"
      },
      "geometry": {
        "type": "Point",
        "coordinates": [
          -60.187676380556404,
          -65.23015148009999
        ]
      }
    },
    {
      "type": "Feature",
      "properties": {
        "norad_id": 54743,
        "name": "METEOSAT-12 (MTG-I1)",
        "group": "weather",
        "lat": 0.4971301672029941,
        "lon": 72.09624186217323,
        "alt_km": 35791.14292340718,
        "timestamp": "2025-12-09T23:33:23.490235+00:00",
        "meta_object_name": "METEOSAT-12 (MTG-I1)",
        "meta_object_id": "2022-170C",
        "meta_epoch": "2025-12-09T06:50:38.880672",
        "meta_mean_motion": 1.00275177,
        "meta_eccentricity": 0.00014445,
        "meta_inclination": 0.7267,
        "meta_ra_of_asc_node": 31.0604,
        "meta_arg_of_pericenter": 223.8448,
        "meta_mean_anomaly": 285.8144,
        "meta_ephemeris_type": 0,
        "meta_classification_type": "U",
        "meta_norad_cat_id": 54743,
        "meta_element_set_no": 999,
        "meta_rev_at_epoch": 1107,
        "meta_bstar": 0,
        "meta_mean_motion_dot": -4e-08,
        "meta_mean_motion_ddot": 0,
        "tle_line1": "1 54743U 22170C   25343.28517223 -.00000004  00000+0  00000+0 0  9995",
        "tle_line2": "2 54743   0.7267  31.0604 0001444 223.8448 285.8144  1.00275177 11076"
      },
      "geometry": {
        "type": "Point",
        "coordinates": [
          72.09624186217323,
          0.4971301672029941
        ]
      }
    }
  ]
}